LILACSAT-1              
1 42725U 98067ME  18073.22708734  .00016515  00000-0  17086-3 0  9995
2 42725  51.6368 120.8433 0003517 245.7222 114.3406 15.64870802 45629
NSIGHT-1                
1 42726U 98067MF  18073.16851203  .00006379  00000-0  83984-4 0  9997
2 42726  51.6390 125.7313 0004786 239.7936 120.2583 15.59875114 45560
SNUSAT-1                
1 42727U 98067MG  18073.10513535  .00018029  00000-0  18651-3 0  9998
2 42727  51.6352 121.4943 0005058 194.1590 165.9264 15.64792785 45575
QBITO                   
1 42728U 98067MH  18073.13106920  .00022543  00000-0  22213-3 0  9993
2 42728  51.6386 120.2357 0001415 268.2889  91.7944 15.65865435 45436
AALTO-2                 
1 42729U 98067MJ  18073.12287004  .00020862  00000-0  20488-3 0  9990
2 42729  51.6365 120.1478 0001395 269.6269  90.4567 15.66003293 45446
SUSAT                   
1 42730U 98067MK  18073.17571324  .00019238  00000-0  19490-3 0  9994
2 42730  51.6363 120.4912 0001465 259.3949 100.6881 15.65279449 45430
I-INSPIRE II            
1 42731U 98067ML  18072.73040891  .00025693  00000-0  23208-3 0  9990
2 42731  51.6355 120.4853 0003787 171.8252 188.2807 15.67941209 45443
POLYITAN-2-SAU          
1 42732U 98067MM  18073.16419110  .00022762  00000-0  22078-3 0  9991
2 42732  51.6361 119.6478 0004318 174.1084 185.9963 15.66247562 45496
SNUSAT-1B               
1 42733U 98067MN  18073.17702483  .00019852  00000-0  20068-3 0  9994
2 42733  51.6363 120.4915 0004574 178.9335 181.1670 15.65305197 45480
EXALTA-1                
1 42734U 98067MP  18073.18083444  .00023400  00000-0  21109-3 0  9996
2 42734  51.6341 118.2364 0004480 211.0139 149.0594 15.68030496 45463
AOXIANG-1               
1 42735U 98067MQ  18073.17431660  .00014465  00000-0  15785-3 0  9997
2 42735  51.6361 121.9766 0005107 235.1652 124.8862 15.63624136 46833
BEEAGLESAT              
1 42736U 98067MR  18073.17451518  .00017160  00000-0  17953-3 0  9996
2 42736  51.6359 121.2234 0004774 235.2863 124.7682 15.64548562 45532
ATLANTIS                
1 42737U 98067MS  18073.11594854  .00337033  56168-4  82809-3 0  9998
2 42737  51.6222 103.2994 0004678  36.7863 323.3465 15.95527087 45654
SOYUZ-MS 06             
1 42937U 17054A   18058.64801626  .00002063  00000-0  38351-4 0  9992
2 42937  51.6402 204.7914 0003113 133.9046 319.3314 15.54160216101485
PROGRESS-MS 07          
1 42971U 17065A   18072.54671075  .00002060  00000-0  38207-4 0  9997
2 42971  51.6420 135.5007 0001944 179.8956 329.3040 15.54224419103649
SIMPL                   
1 42983U 98067NF  18072.78286060  .00003690  00000-0  59908-4 0  9994
2 42983  51.6424 133.4288 0004091 190.4152 272.1167 15.55542955 21369
ECAMSAT                 
1 43019U 98067NG  18073.20082215  .00004108  00000-0  64828-4 0  9991
2 43019  51.6398 131.1894 0004841 173.3937 186.7120 15.55999938103752
ASTERIA                 
1 43020U 98067NH  18073.16311847  .00010899  00000-0  15432-3 0  9994
2 43020  51.6398 130.9446 0002092 160.3199 199.7874 15.57053943 17670
DELLINGR (RBLE)         
1 43021U 98067NJ  18073.19649985  .00005068  00000-0  77911-4 0  9998
2 43021  51.6397 131.1626 0002034 158.9088 201.1987 15.56151318 17676
TECHEDSAT 6             
1 43026U 98067NK  18073.15370388  .00099872  00000-0  84494-3 0  9996
2 43026  51.6348 126.3533 0003456   4.9044 355.1986 15.68920231 17637
OSIRIS-3U               
1 43027U 98067NL  18073.20134002  .00016284  00000-0  20833-3 0  9997
2 43027  51.6385 129.6937 0002309 132.5538 227.5650 15.59365326 17576
SOYUZ-MS 07             
1 43063U 17081A   18072.54671075  .00002060  00000-0  38207-4 0  9998
2 43063  51.6420 135.5007 0001944 179.8956 329.3040 15.54224419103642
PROGRESS-MS 08          
1 43211U 18019A   18072.54671075  .00002060  00000-0  38207-4 0  9995
2 43211  51.6420 135.5007 0001944 179.8956 329.3040 15.54224419103647
